{
"type": "FeatureCollection",
"name": "settlements_corridor",
"crs": { "type": "name", "properties": { "name": "urn:ogc:def:crs:OGC:1.3:CRS84" } },
"features": [
{ "type": "Feature", "properties": { "name": "Loitokitok", "lat": -2.9767, "lon": 37.5088 }, "geometry": { "type": "Point", "coordinates": [ 37.5088, -2.9767 ] } },
{ "type": "Feature", "properties": { "name": "Kimana", "lat": -2.877, "lon": 37.524 }, "geometry": { "type": "Point", "coordinates": [ 37.524, -2.877 ] } },
{ "type": "Feature", "properties": { "name": "Emali", "lat": -2.2333, "lon": 37.5 }, "geometry": { "type": "Point", "coordinates": [ 37.5, -2.2333 ] } },
{ "type": "Feature", "properties": { "name": "Mtito Andei", "lat": -2.6833, "lon": 38.1667 }, "geometry": { "type": "Point", "coordinates": [ 38.1667, -2.6833 ] } },
{ "type": "Feature", "properties": { "name": "Voi", "lat": -3.3961, "lon": 38.5561 }, "geometry": { "type": "Point", "coordinates": [ 38.5561, -3.3961 ] } },
{ "type": "Feature", "properties": { "name": "Taveta", "lat": -3.4, "lon": 37.6833 }, "geometry": { "type": "Point", "coordinates": [ 37.6833, -3.4 ] } },
{ "type": "Feature", "properties": { "name": "Isiolo", "lat": 0.3546, "lon": 37.5822 }, "geometry": { "type": "Point", "coordinates": [ 37.5822, 0.3546 ] } },
{ "type": "Feature", "properties": { "name": "Archer's Post", "lat": 0.6314, "lon": 37.6702 }, "geometry": { "type": "Point", "coordinates": [ 37.6702, 0.6314 ] } },
{ "type": "Feature", "properties": { "name": "Wamba", "lat": 0.9833, "lon": 37.3167 }, "geometry": { "type": "Point", "coordinates": [ 37.3167, 0.9833 ] } },
{ "type": "Feature", "properties": { "name": "Maralal", "lat": 1.0968, "lon": 36.698 }, "geometry": { "type": "Point", "coordinates": [ 36.698, 1.0968 ] } },
{ "type": "Feature", "properties": { "name": "Nanyuki", "lat": 0.0167, "lon": 37.0733 }, "geometry": { "type": "Point", "coordinates": [ 37.0733, 0.0167 ] } },
{ "type": "Feature", "properties": { "name": "Nyahururu", "lat": 0.0369, "lon": 36.3628 }, "geometry": { "type": "Point", "coordinates": [ 36.3628, 0.0369 ] } },
{ "type": "Feature", "properties": { "name": "Narok", "lat": -1.0833, "lon": 35.8667 }, "geometry": { "type": "Point", "coordinates": [ 35.8667, -1.0833 ] } },
{ "type": "Feature", "properties": { "name": "Kilgoris", "lat": -1.0167, "lon": 34.8667 }, "geometry": { "type": "Point", "coordinates": [ 34.8667, -1.0167 ] } },
{ "type": "Feature", "properties": { "name": "Meru", "lat": 0.05, "lon": 37.65 }, "geometry": { "type": "Point", "coordinates": [ 37.65, 0.05 ] } }
]
}
